IRIDIUM 33 DEB          
1 33773U 97051L   17345.77155719  .00000224  00000-0  67229-4 0  9995
2 33773  86.4046 210.8011 0013108  54.5602 305.6818 14.38194157463031
